COMMENT,ORIGINATOR,NORAD_CAT_ID,OBJECT_NAME,OBJECT_TYPE,CLASSIFICATION_TYPE,INTLDES,EPOCH,EPOCH_MICROSECONDS,MEAN_MOTION,ECCENTRICITY,INCLINATION,RA_OF_ASC_NODE,ARG_OF_PERICENTER,MEAN_ANOMALY,EPHEMERIS_TYPE,ELEMENT_SET_NO,REV_AT_EPOCH,BSTAR,MEAN_MOTION_DOT,MEAN_MOTION_DDOT,FILE,TLE_LINE0,TLE_LINE1,TLE_LINE2,OBJECT_ID,OBJECT_NUMBER,SEMIMAJOR_AXIS,PERIOD,APOGEE,PERIGEE,DECAYED
GENERATED VIA SPACETRACK.ORG API,18 SPCS,52365,STARLINK-3874,PAYLOAD,U,22045AL,2022-12-03 17:40:37,926048,15.08846226,0.0002684,53.2168,139.9952,57.1339,302.9911,0,999,3597,9.3867e-05,1.206e-05,0,3680595,0 STARLINK-3874,1 52365U 22045AL  22337.73655007  .00001206  00000-0  93867-4 0  9990,2 52365  53.2168 139.9952 0002684  57.1339 302.9911 15.08846226 35975,2022-045AL,52365,6917.861,95.437,541.583,537.87,0
GENERATED VIA SPACETRACK.ORG API,18 SPCS,52365,STARLINK-3874,PAYLOAD,U,22045AL,2022-12-03 22:26:47,757408,15.08840192,0.0002671,53.217,139.1034,56.5769,303.5478,0,999,3600,2.1295e-05,5e-07,0,3680950,0 STARLINK-3874,1 52365U 22045AL  22337.93527497  .00000050  00000-0  21295-4 0  9995,2 52365  53.2170 139.1034 0002671  56.5769 303.5478 15.08840192 36003,2022-045AL,52365,6917.88,95.438,541.593,537.897,0
GENERATED VIA SPACETRACK.ORG API,18 SPCS,52365,STARLINK-3874,PAYLOAD,U,22045AL,2022-12-04 11:09:52,380576,15.08844644,0.0002599,53.2172,136.7245,55.1094,305.0142,0,999,3608,4.7505e-05,4.68e-06,0,3681207,0 STARLINK-3874,1 52365U 22045AL  22338.46518959  .00000468  00000-0  47505-4 0  9992,2 52365  53.2172 136.7245 0002599  55.1094 305.0142 15.08844644 36086,2022-045AL,52365,6917.866,95.437,541.529,537.933,0
GENERATED VIA SPACETRACK.ORG API,18 SPCS,52365,STARLINK-3874,PAYLOAD,U,22045AL,2022-12-04 17:31:24,629088,15.08847463,0.0002611,53.2171,135.5351,55.7658,304.3582,0,999,3612,6.3469e-05,7.22e-06,0,3681452,0 STARLINK-3874,1 52365U 22045AL  22338.73014617  .00000722  00000-0  63469-4 0  9994,2 52365  53.2171 135.5351 0002611  55.7658 304.3582 15.08847463 36124,2022-045AL,52365,6917.858,95.437,541.529,537.916,0
GENERATED VIA SPACETRACK.ORG API,18 SPCS,52365,STARLINK-3874,PAYLOAD,U,22045AL,2022-12-04 17:31:24,629088,15.08847463,0.0002611,53.2171,135.5351,55.7658,304.3582,0,999,3612,6.3469e-05,7.22e-06,0,3681494,0 STARLINK-3874,1 52365U 22045AL  22338.73014617  .00000722  00000-0  63469-4 0  9994,2 52365  53.2171 135.5351 0002611  55.7658 304.3582 15.08847463 36124,2022-045AL,52365,6917.858,95.437,541.529,537.916,0
GENERATED VIA SPACETRACK.ORG API,18 SPCS,52365,STARLINK-3874,PAYLOAD,U,22045AL,2022-12-05 09:25:16,3776,15.08844859,0.0002668,53.2181,132.5622,57.1376,302.9873,0,999,3622,-6.5389e-07,-2.99e-06,0,3682099,0 STARLINK-3874,1 52365U 22045AL  22339.39254634 -.00000299  00000-0 -65389-6 0  9998,2 52365  53.2181 132.5622 0002668  57.1376 302.9873 15.08844859 36222,2022-045AL,52365,6917.866,95.437,541.576,537.885,0
GENERATED VIA SPACETRACK.ORG API,18 SPCS,52365,STARLINK-3874,PAYLOAD,U,22045AL,2022-12-05 14:11:25,736640,15.08836447,0.0002654,53.2178,131.6698,57.3789,302.7459,0,999,3625,4.6087e-05,4.45e-06,0,3682063,0 STARLINK-3874,1 52365U 22045AL  22339.59127010  .00000445  00000-0  46087-4 0  9990,2 52365  53.2178 131.6698 0002654  57.3789 302.7459 15.08836447 36251,2022-045AL,52365,6917.891,95.438,541.592,537.92,0
GENERATED VIA SPACETRACK.ORG API,18 SPCS,52365,STARLINK-3874,PAYLOAD,U,22045AL,2022-12-05 17:22:11,884224,15.08838248,0.0002651,53.2185,131.0759,57.8009,302.324,0,999,3627,5.2809e-05,5.52e-06,0,3682465,0 STARLINK-3874,1 52365U 22045AL  22339.72374866  .00000552  00000-0  52809-4 0  9996,2 52365  53.2185 131.0759 0002651  57.8009 302.3240 15.08838248 36275,2022-045AL,52365,6917.886,95.438,541.585,537.917,0
GENERATED VIA SPACETRACK.ORG API,18 SPCS,52365,STARLINK-3874,PAYLOAD,U,22045AL,2022-12-06 02:54:30,307104,15.08844012,0.0002652,53.2184,129.2915,57.2748,302.8499,0,999,3633,8.0862e-05,9.99e-06,0,3682730,0 STARLINK-3874,1 52365U 22045AL  22340.12118411  .00000999  00000-0  80862-4 0  9999,2 52365  53.2184 129.2915 0002652  57.2748 302.8499 15.08844012 36336,2022-045AL,52365,6917.868,95.437,541.568,537.899,0
GENERATED VIA SPACETRACK.ORG API,18 SPCS,52365,STARLINK-3874,PAYLOAD,U,22045AL,2022-12-06 10:51:26,110656,15.08841199,0.0002476,53.219,127.8046,57.2431,302.8799,0,999,3638,6.224e-05,7.02e-06,0,3683104,0 STARLINK-3874,1 52365U 22045AL  22340.45238554  .00000702  00000-0  62240-4 0  9998,2 52365  53.2190 127.8046 0002476  57.2431 302.8799 15.08841199 36386,2022-045AL,52365,6917.877,95.437,541.455,538.029,0
GENERATED VIA SPACETRACK.ORG API,18 SPCS,52365,STARLINK-3874,PAYLOAD,U,22045AL,2022-12-06 17:12:58,560480,15.08844169,0.0002594,53.219,126.6152,61.273,298.8522,0,999,3642,3.6611e-05,2.94e-06,0,3683274,0 STARLINK-3874,1 52365U 22045AL  22340.71734445  .00000294  00000-0  36611-4 0  9996,2 52365  53.2190 126.6152 0002594  61.2730 298.8522 15.08844169 36422,2022-045AL,52365,6917.868,95.437,541.527,537.938,0
GENERATED VIA SPACETRACK.ORG API,18 SPCS,52365,STARLINK-3874,PAYLOAD,U,22045AL,2022-12-07 09:06:50,314464,15.08836978,0.0002604,53.2182,123.6409,58.3139,301.8107,0,999,3652,6.1734e-05,6.94e-06,0,3683835,0 STARLINK-3874,1 52365U 22045AL  22341.37974901  .00000694  00000-0  61734-4 0  9990,2 52365  53.2182 123.6409 0002604  58.3139 301.8107 15.08836978 36521,2022-045AL,52365,6917.89,95.438,541.556,537.953,0
GENERATED VIA SPACETRACK.ORG API,18 SPCS,52365,STARLINK-3874,PAYLOAD,U,22045AL,2022-12-07 18:39:09,620352,15.08835688,0.0002579,53.2181,121.8564,56.1822,303.9415,0,999,3658,-4.9207e-05,-1.071e-05,0,3684212,0 STARLINK-3874,1 52365U 22045AL  22341.77719468 -.00001071  00000-0 -49207-4 0  9992,2 52365  53.2181 121.8564 0002579  56.1822 303.9415 15.08835688 36586,2022-045AL,52365,6917.894,95.438,541.543,537.974,0
GENERATED VIA SPACETRACK.ORG API,18 SPCS,52365,STARLINK-3874,PAYLOAD,U,22045AL,2022-12-08 10:33:00,46368,15.08843685,0.0002293,53.2165,118.8816,53.057,307.0632,0,999,3668,0.00012654,1.726e-05,0,3684614,0 STARLINK-3874,1 52365U 22045AL  22342.43958387  .00001726  00000-0  12654-3 0  9991,2 52365  53.2165 118.8816 0002293  53.0570 307.0632 15.08843685 36686,2022-045AL,52365,6917.869,95.437,541.32,538.148,0
GENERATED VIA SPACETRACK.ORG API,18 SPCS,52365,STARLINK-3874,PAYLOAD,U,22045AL,2022-12-08 15:19:09,110496,15.08846655,0.0001877,53.2185,117.9914,27.81,332.2992,0,999,3671,0.00017046,2.426e-05,0,3684900,0 STARLINK-3874,1 52365U 22045AL  22342.63829989  .00002426  00000-0  17046-3 0  9996,2 52365  53.2185 117.9914 0001877  27.8100 332.2992 15.08846655 36715,2022-045AL,52365,6917.86,95.437,541.024,538.427,0
GENERATED VIA SPACETRACK.ORG API,18 SPCS,52365,STARLINK-3874,PAYLOAD,U,22045AL,2022-12-08 15:19:09,110496,15.08846655,0.0001877,53.2185,117.9914,27.81,332.2992,0,999,3671,0.00017046,2.426e-05,0,3684925,0 STARLINK-3874,1 52365U 22045AL  22342.63829989  .00002426  00000-0  17046-3 0  9996,2 52365  53.2185 117.9914 0001877  27.8100 332.2992 15.08846655 36715,2022-045AL,52365,6917.86,95.437,541.024,538.427,0
GENERATED VIA SPACETRACK.ORG API,18 SPCS,52365,STARLINK-3874,PAYLOAD,U,22045AL,2022-12-08 16:54:31,893120,15.08852116,0.0002352,53.2182,117.6938,51.9836,308.1368,0,999,3672,0.00019969,2.892e-05,0,3685204,0 STARLINK-3874,1 52365U 22045AL  22342.70453580  .00002892  00000-0  19969-3 0  9997,2 52365  53.2182 117.6938 0002352  51.9836 308.1368 15.08852116 36727,2022-045AL,52365,6917.843,95.437,541.335,538.081,0
GENERATED VIA SPACETRACK.ORG API,18 SPCS,52365,STARLINK-3874,PAYLOAD,U,22045AL,2022-12-08 16:54:31,893120,15.08852116,0.0002352,53.2182,117.6938,51.9836,308.1368,0,999,3672,0.00019969,2.892e-05,0,3685263,0 STARLINK-3874,1 52365U 22045AL  22342.70453580  .00002892  00000-0  19969-3 0  9997,2 52365  53.2182 117.6938 0002352  51.9836 308.1368 15.08852116 36727,2022-045AL,52365,6917.843,95.437,541.335,538.081,0
GENERATED VIA SPACETRACK.ORG API,18 SPCS,52365,STARLINK-3874,PAYLOAD,U,22045AL,2022-12-09 19:56:06,355968,15.08835986,0.0002224,53.2179,112.636,58.0513,302.0695,0,999,3689,6.7621e-05,7.88e-06,0,3686029,0 STARLINK-3874,1 52365U 22045AL  22343.83062912  .00000788  00000-0  67621-4 0  9998,2 52365  53.2179 112.6360 0002224  58.0513 302.0695 15.08835986 36895,2022-045AL,52365,6917.893,95.438,541.296,538.219,0
GENERATED VIA SPACETRACK.ORG API,18 SPCS,52365,STARLINK-3874,PAYLOAD,U,22045AL,2022-12-10 13:25:21,701280,15.08825341,0.0002364,53.2192,109.3695,39.3051,320.8113,0,999,3700,8.3003e-05,1.032e-05,0,3688024,0 STARLINK-3874,1 52365U 22045AL  22344.55927895  .00001032  00000-0  83003-4 0  9993,2 52365  53.2192 109.3695 0002364  39.3051 320.8113 15.08825341 37009,2022-045AL,52365,6917.925,95.438,541.426,538.155,0
GENERATED VIA SPACETRACK.ORG API,18 SPCS,52365,STARLINK-3874,PAYLOAD,U,22045AL,2022-12-10 13:25:21,701280,15.08825341,0.0002364,53.2192,109.3695,39.3051,320.8113,0,999,3700,8.3003e-05,1.032e-05,0,3688140,0 STARLINK-3874,1 52365U 22045AL  22344.55927895  .00001032  00000-0  83003-4 0  9993,2 52365  53.2192 109.3695 0002364  39.3051 320.8113 15.08825341 37009,2022-045AL,52365,6917.925,95.438,541.426,538.155,0
GENERATED VIA SPACETRACK.ORG API,18 SPCS,52365,STARLINK-3874,PAYLOAD,U,22045AL,2022-12-10 15:00:43,596576,15.08854555,0.0001843,53.2193,109.0717,82.1323,277.9879,0,999,3701,-0.00024812,-4.236e-05,0,3688828,0 STARLINK-3874,1 52365U 22045AL  22344.62550459 -.00004236  00000-0 -24812-3 0  9992,2 52365  53.2193 109.0717 0001843  82.1323 277.9879 15.08854555 37012,2022-045AL,52365,6917.836,95.437,540.976,538.426,0
GENERATED VIA SPACETRACK.ORG API,18 SPCS,52365,STARLINK-3874,PAYLOAD,U,22045AL,2022-12-10 15:00:43,596576,15.08854555,0.0001843,53.2193,109.0717,82.1323,277.9879,0,999,3701,-0.00024812,-4.236e-05,0,3688965,0 STARLINK-3874,1 52365U 22045AL  22344.62550459 -.00004236  00000-0 -24812-3 0  9992,2 52365  53.2193 109.0717 0001843  82.1323 277.9879 15.08854555 37012,2022-045AL,52365,6917.836,95.437,540.976,538.426,0
